[
    {
        "Altitude(m)": 607910.9881480566,
        "Argument of Periapsis(deg)": 0.0,
        "Eccentricity": 0.0,
        "Inclination(deg)": 60.0,
        "Latitude(deg)": -14.292826445604996,
        "Longitude(deg)": 93.44265351224371,
        "Mean Anomaly(deg)": 196.36359999999996,
        "RAAN(deg)": 5.0,
        "Satellite Name": "Test1 34",
        "Satellite Number": 34,
        "Semi-Major Axis(m)": 6980739.136638005,
        "Time(s)": 0
    },
    {
        "Altitude(m)": 608060.2210096882,
        "Argument of Periapsis(deg)": 0.00010418945913296404,
        "Eccentricity": 0.0,
        "Inclination(deg)": 60.0,
        "Latitude(deg)": -14.826487735714306,
        "Longitude(deg)": 93.73126303085427,
        "Mean Anomaly(deg)": 196.9837061454618,
        "RAAN(deg)": 4.999579950860257,
        "Satellite Name": "Test1 34",
        "Satellite Number": 34,
        "Semi-Major Axis(m)": 6980739.136638005,
        "Time(s)": 10
    }
]